NORAD_CAT_ID,OBJECT_NAME,OBJECT_TYPE,EPOCH,MEAN_MOTION,ECCENTRICITY,INCLINATION,RA_OF_ASC_NODE,ARG_OF_PERICENTER,MEAN_ANOMALY,BSTAR,MEAN_MOTION_DOT,MEAN_MOTION_DDOT,TLE_LINE0,TLE_LINE1,TLE_LINE2,SEMIMAJOR_AXIS,PERIOD,APOGEE,PERIGEE,DECAYED
53546.0,STARLINK-4477,PAYLOAD,2022-10-12 14:00:01,15.73214753,0.0008135,53.2168,247.4618,275.2291,289.586,-9.8563e-05,-0.00014478,0.0,0 STARLINK-4477,1 53546U 22101V   22285.58334491 -.00014478  00000-0 -98563-4 0  9996,2 53546  53.2168 247.4618 0008135 275.2291 289.5860 15.73214753  1307,6727.853,91.532,355.191,344.245,0.0
53546.0,STARLINK-4477,PAYLOAD,2022-10-12 22:00:00,15.73203908,0.0007853,53.2172,245.8137,274.3673,19.3885,1.3298e-05,1.239e-05,0.0,0 STARLINK-4477,1 53546U 22101V   22285.91667824  .00001239  00000-0  13298-4 0  9993,2 53546  53.2172 245.8137 0007853 274.3673  19.3885 15.73203908  1306,6727.884,91.533,355.032,344.466,0.0
53546.0,STARLINK-4477,PAYLOAD,2022-10-13 14:00:01,15.73282813,0.0008367,53.2173,242.5146,273.3099,198.267,-0.00077534,-0.00108696,0.0,0 STARLINK-4477,1 53546U 22101V   22286.58334491 -.00108696  00000-0 -77534-3 0  9997,2 53546  53.2173 242.5146 0008367 273.3099 198.2670 15.73282813  1304,6727.659000000002,91.528,355.153,343.895,0.0
53546.0,STARLINK-4477,PAYLOAD,2022-10-13 22:00:00,15.73204705,0.0008472,53.2177,240.8661,271.5958,288.9619,1.8255e-06,-3.76e-06,0.0,0 STARLINK-4477,1 53546U 22101V   22286.91667824 -.00000376  00000-0  18255-5 0  9995,2 53546  53.2177 240.8661 0008472 271.5958 288.9619 15.73204705  1306,6727.882,91.533,355.44699999999995,344.047,0.0
53546.0,STARLINK-4477,PAYLOAD,2022-10-14 06:00:00,15.73270128,0.0007884,53.2172,239.2148,274.7604,14.8913,-0.0025231999999999,-0.00342649,0.0,0 STARLINK-4477,1 53546U 22101V   22287.25001157 -.00342649  00000-0 -25232-2 0  9997,2 53546  53.2172 239.2148 0007884 274.7604  14.8913 15.73270128  8764,6727.695,91.529,354.86400000000015,344.256,0.0
53546.0,STARLINK-4477,PAYLOAD,2022-10-14 14:00:01,15.73070141,0.000819,53.2173,237.5662,273.1614,105.3312,0.0015307,0.00219004,0.0,0 STARLINK-4477,1 53546U 22101V   22287.58334491  .00219004  00000-0  15307-2 0  9991,2 53546  53.2173 237.5662 0008190 273.1614 105.3312 15.73070141  8810,6728.265,91.541,355.641,344.62,0.0
53546.0,STARLINK-4477,PAYLOAD,2022-10-14 18:00:00,15.73204245,0.0008224,53.2172,236.7417,271.1467,331.7474,5.5631e-07,-5.54e-06,0.0,0 STARLINK-4477,1 53546U 22101V   22287.75001157 -.00000554  00000-0  55631-6 0  9997,2 53546  53.2172 236.7417 0008224 271.1467 331.7474 15.73204245  8841,6727.8830000000025,91.533,355.281,344.215,0.0
53546.0,STARLINK-4477,PAYLOAD,2022-10-15 14:00:01,15.73244899,0.0008307,53.2161,232.6114,274.4376,10.9468,-0.00021578,-0.0003093,0.0,0 STARLINK-4477,1 53546U 22101V   22288.58334491 -.00030930  00000-0 -21578-3 0  9991,2 53546  53.2161 232.6114 0008307 274.4376  10.9468 15.73244899  1307,6727.767,91.531,355.221,344.043,0.0
53546.0,STARLINK-4477,PAYLOAD,2022-10-15 22:00:01,15.73356606,0.000811,53.2163,230.9611,278.2413,96.3202,0.00026158,0.00036558,0.0,0 STARLINK-4477,1 53546U 22101V   22288.91668981  .00036558  00000-0  26158-3 0  9991,2 53546  53.2163 230.9611 0008110 278.2413  96.3202 15.73356606  9029,6727.449000000001,91.524,354.77,343.858,0.0
53546.0,STARLINK-4477,PAYLOAD,2022-10-16 06:00:00,15.73163555,0.0008349,53.2161,229.314,275.29900000000004,187.9486,0.00023587,0.00032616,0.0,0 STARLINK-4477,1 53546U 22101V   22289.25001157  .00032616  00000-0  23587-3 0  9999,2 53546  53.2161 229.3140 0008349 275.2990 187.9486 15.73163555  9083,6727.999,91.535,355.481,344.247,0.0
53546.0,STARLINK-4477,PAYLOAD,2022-10-16 14:00:01,15.73191166,0.0008392999999999,53.2158,227.6627,273.9059,278.2653,3.7866e-05,4.694e-05,0.0,0 STARLINK-4477,1 53546U 22101V   22289.58334491  .00004694  00000-0  37866-4 0  9996,2 53546  53.2158 227.6627 0008393 273.9059 278.2653 15.73191166  1306,6727.92,91.534,355.432,344.139,0.0
53546.0,STARLINK-4477,PAYLOAD,2022-10-16 22:00:00,15.73209982,0.0008277,53.216,226.014,273.6956,7.392,-7.646600000000001e-05,-0.00011377,0.0,0 STARLINK-4477,1 53546U 22101V   22289.91667824 -.00011377  00000-0 -76466-4 0  9999,2 53546  53.2160 226.0140 0008277 273.6956   7.3920 15.73209982  1300,6727.8669999999975,91.533,355.3,344.163,0.0
53546.0,STARLINK-4477,PAYLOAD,2022-10-17 06:00:00,15.73123995,0.0008343999999999,53.2157,224.3673,275.7941,94.1933,0.00071372,0.00100604,0.0,0 STARLINK-4477,1 53546U 22101V   22290.25001157  .00100604  00000-0  71372-3 0  9999,2 53546  53.2157 224.3673 0008344 275.7941  94.1933 15.73123995  9237,6728.111999999999,91.538,355.591,344.36300000000006,0.0
53546.0,STARLINK-4477,PAYLOAD,2022-10-17 14:00:01,15.73200471,0.0008448,53.216,222.7149,273.7348,185.193,0.00014631,0.00019994,0.0,0 STARLINK-4477,1 53546U 22101V   22290.58334491  .00019994  00000-0  14631-3 0  9991,2 53546  53.2160 222.7149 0008448 273.7348 185.1930 15.73200471  1308,6727.894,91.533,355.4430000000001,344.075,0.0
53546.0,STARLINK-4477,PAYLOAD,2022-10-17 22:00:00,15.73459017,0.0007898,53.2168,221.0677,270.8306,276.9636,-0.004484,-0.00595813,0.0,0 STARLINK-4477,1 53546U 22101V   22290.91667824 -.00595813  00000-0 -44840-2 0  9992,2 53546  53.2168 221.0677 0007898 270.8306 276.9636 15.73459017  1308,6727.156999999997,91.518,354.335,343.709,0.0
53546.0,STARLINK-4477,PAYLOAD,2022-10-18 06:00:00,15.72999876,0.0006901,53.2174,219.4213,270.6704,6.1299,-0.0048722999999999,-0.00631612,0.0,0 STARLINK-4477,1 53546U 22101V   22291.25001157 -.00631612  00000-0 -48723-2 0  9993,2 53546  53.2174 219.4213 0006901 270.6704   6.1299 15.72999876  9392,6728.465999999999,91.545,354.974,345.68699999999984,0.0
53546.0,STARLINK-4477,PAYLOAD,2022-10-18 14:00:01,15.72546234,0.000426,53.2175,217.7726,269.2493,95.99,-0.0090988,-0.01112136,0.0,0 STARLINK-4477,1 53546U 22101V   22291.58334491 -.01112136  00000-0 -90988-2 0  9995,2 53546  53.2175 217.7726 0004260 269.2493  95.9900 15.72546234  9445,6729.76,91.571,354.492,348.7580000000001,0.0
53546.0,STARLINK-4477,PAYLOAD,2022-10-18 22:00:00,15.71750304,0.0001014,53.2176,216.1263,276.9509,175.9331,-0.0096997,-0.01140504,0.0,0 STARLINK-4477,1 53546U 22101V   22291.91667824 -.01140504  00000-0 -96997-2 0  9997,2 53546  53.2176 216.1263 0001014 276.9509 175.9331 15.71750304  1300,6732.031,91.618,354.579,353.214,0.0
53546.0,STARLINK-4477,PAYLOAD,2022-10-19 06:00:00,15.70956997,0.0002481,53.2171,214.4821,277.5265,262.0203,-0.010286,-0.01186518,0.0,0 STARLINK-4477,1 53546U 22101V   22292.25001157 -.01186518  00000-0 -10286-1 0  9997,2 53546  53.2171 214.4821 0002481 277.5265 262.0203 15.70956997  9557,6734.2980000000025,91.664,357.833,354.492,0.0
53546.0,STARLINK-4477,PAYLOAD,2022-10-19 14:00:01,15.70103892,1.46e-05,53.2174,212.8377,355.9844,269.2768,-0.010089,-0.01109662,0.0,0 STARLINK-4477,1 53546U 22101V   22292.58334491 -.01109662  00000-0 -10089-1 0  9999,2 53546  53.2174 212.8377 0000146 355.9844 269.2768 15.70103892  1306,6736.736999999999,91.714,358.7,358.50300000000016,0.0
53546.0,STARLINK-4477,PAYLOAD,2022-10-19 22:00:00,15.692983600000002,0.0001004999999999,53.2176,211.1973,93.3319,256.6428,-0.0105659999999999,-0.01122373,0.0,0 STARLINK-4477,1 53546U 22101V   22292.91667824 -.01122373  00000-0 -10566-1 0  9999,2 53546  53.2176 211.1973 0001005  93.3319 256.6428 15.69298360  9659,6739.042,91.761,361.584,360.23,0.0
53546.0,STARLINK-4477,PAYLOAD,2022-10-20 14:00:01,15.67667689,0.0001167,53.2175,207.9204,76.4154,80.0628,-0.011235,-0.0113451,0.0,0 STARLINK-4477,1 53546U 22101V   22293.58334491 -.01134510  00000-0 -11235-1 0  9994,2 53546  53.2175 207.9204 0001167  76.4154  80.0628 15.67667689  1303,6743.714,91.856,366.366,364.792,0.0
53546.0,STARLINK-4477,PAYLOAD,2022-10-20 22:00:00,15.66855082,0.0001193,53.2177,206.2863,81.1145,157.1469,-0.011634,-0.01136189,0.0,0 STARLINK-4477,1 53546U 22101V   22293.91667824 -.01136189  00000-0 -11634-1 0  9997,2 53546  53.2177 206.2863 0001193  81.1145 157.1469 15.66855082  1304,6746.045999999999,91.904,368.716,367.106,0.0
53546.0,STARLINK-4477,PAYLOAD,2022-10-21 06:00:00,15.66041479,0.0001075999999999,53.2172,204.6543,63.3612,255.7054,-0.012015,-0.01135262,0.0,0 STARLINK-4477,1 53546U 22101V   22294.25001157 -.01135262  00000-0 -12015-1 0  9991,2 53546  53.2172 204.6543 0001076  63.3612 255.7054 15.66041479  9868,6748.382,91.952,370.973,369.521,0.0
53546.0,STARLINK-4477,PAYLOAD,2022-10-21 14:00:01,15.65226105,0.000103,53.2173,203.0211,65.5644,333.3331,-0.012399,-0.01133738,0.0,0 STARLINK-4477,1 53546U 22101V   22294.58334491 -.01133738  00000-0 -12399-1 0  9998,2 53546  53.2173 203.0211 0001030  65.5644 333.3331 15.65226105  1305,6750.726,91.999,373.286,371.895,0.0
53546.0,STARLINK-4477,PAYLOAD,2022-10-21 22:00:00,15.64434271,0.0001181,53.2171,201.3919,81.3693,36.3683,-0.0131639999999999,-0.01163021,0.0,0 STARLINK-4477,1 53546U 22101V   22294.91667824 -.01163021  00000-0 -13164-1 0  9993,2 53546  53.2171 201.3919 0001181  81.3693  36.3683 15.64434271  1300,6753.003000000002,92.046,375.666,374.071,0.0
53546.0,STARLINK-4477,PAYLOAD,2022-10-22 14:00:01,15.62783977,0.0001060999999999,53.2174,198.1394,82.4255,190.0908,-0.013632,-0.0113122,0.0,0 STARLINK-4477,1 53546U 22101V   22295.58334491 -.01131220  00000-0 -13632-1 0  9994,2 53546  53.2174 198.1394 0001061  82.4255 190.0908 15.62783977  1302,6757.757,92.143,380.339,378.905,0.0
53546.0,STARLINK-4477,PAYLOAD,2022-10-22 22:00:00,15.619836,0.000105,53.2175,196.5167,76.4436,271.9833,-0.0143229999999999,-0.011498,0.0,0 STARLINK-4477,1 53546U 22101V   22295.91667824 -.01149800  00000-0 -14323-1 0  9991,2 53546  53.2175 196.5167 0001050  76.4436 271.9833 15.61983600  1305,6760.065,92.19,382.64,381.22,0.0
53546.0,STARLINK-4477,PAYLOAD,2022-10-23 06:00:00,15.61174753,0.0001177999999999,53.2169,194.8964,61.8329,1.5296,-0.014851,-0.01154661,0.0,0 STARLINK-4477,1 53546U 22101V   22296.25001157 -.01154661  00000-0 -14851-1 0  9997,2 53546  53.2169 194.8964 0001178  61.8329   1.5296 15.61174753 10181,6762.4,92.238,385.061,383.468,0.0
